ONEWEB-0318             
1 49104U 21075AF  26045.23565046 -.00000032  00000+0 -11443-3 0  9993
2 49104  87.9233 359.8642 0001992  75.1317 285.0035 13.18684640220967
ONEWEB-0319             
1 49105U 21075AG  26045.00494106 -.00000084  00000+0 -24926-3 0  9994
2 49105  87.9105  30.3375 0002083  69.6263 290.5092 13.17647822217386
ONEWEB-0323             
1 49106U 21075AH  26044.91776064  .00000118  00000+0  29256-3 0  9997
2 49106  87.8971  15.1111 0002356  68.7544 291.3836 13.12442439218389
ONEWEB-0329             
1 49107U 21075AJ  26044.93743335  .00000117  00000+0  26884-3 0  9998
2 49107  87.9109  30.3508 0002056  84.8195 275.3172 13.17647854217355
ONEWEB-0330             
1 49108U 21075AK  26045.01421484  .00000047  00000+0  87545-4 0  9991
2 49108  87.9105  30.3436 0002158  92.4237 267.7141 13.17647447217402
ONEWEB-0292             
1 49186U 21083A   26045.21490758  .00000191  00000+0  48793-3 0  9999
2 49186  87.9030 344.6981 0001929  72.3602 287.7737 13.13470910214785
ONEWEB-0303             
1 49187U 21083B   26045.23234584 -.00000096  00000+0 -27626-3 0  9993
2 49187  87.9234 359.8673 0001963  77.6818 282.4534 13.18683590213773
ONEWEB-0306             
1 49188U 21083C   26044.91893972  .00000004  00000+0 -21452-4 0  9990
2 49188  87.9230 359.9132 0001813  89.4908 270.6431 13.18683980213774
ONEWEB-0307             
1 49189U 21083D   26045.28517128  .00000359  00000+0  94708-3 0  9993
2 49189  87.9026 344.6737 0001815  79.1402 280.9932 13.13471094214796
ONEWEB-0320             
1 49190U 21083E   26045.22986976  .00000072  00000+0  15094-3 0  9993
2 49190  87.9224 359.8768 0001917  82.2274 277.9076 13.18687690213773
ONEWEB-0321             
1 49191U 21083F   26045.17189577  .00000067  00000+0  13267-3 0  9994
2 49191  87.9212 298.9896 0001556  91.1044 269.0267 13.20770875220592
ONEWEB-0322             
1 49192U 21083G   26045.28092515  .00000445  00000+0  11841-2 0  9997
2 49192  87.9028 344.6791 0001404  92.1419 267.9871 13.13472345214785
ONEWEB-0324             
1 49193U 21083H   26044.91234552 -.00000144  00000+0 -39692-3 0  9999
2 49193  87.9236 359.9200 0001999  83.5013 276.6346 13.18684579213753
ONEWEB-0325             
1 49194U 21083J   26044.91564249  .00000020  00000+0  18527-4 0  9995
2 49194  87.9222 359.9387 0001844  80.3137 279.8203 13.18683772213768
ONEWEB-0326             
1 49195U 21083K   26045.23414066  .00000020  00000+0  17872-4 0  9995
2 49195  87.9232 359.8633 0001947  73.1307 287.0039 13.18684547213798
ONEWEB-0327             
1 49196U 21083L   26045.23386506 -.00000092  00000+0 -26714-3 0  9998
2 49196  87.9222 359.8782 0001839  73.3673 286.7661 13.18684040213819
ONEWEB-0328             
1 49197U 21083M   26045.27077190  .00000418  00000+0  11084-2 0  9992
2 49197  87.9046 344.6371 0001952  80.8268 279.3082 13.13472336214767
