[{"OBJECT_NAME":"ONEWEB-0318","OBJECT_ID":"2021-075AF","EPOCH":"2026-02-14T05:39:20.199744","MEAN_MOTION":13.1868464,"ECCENTRICITY":0.00019929,"INCLINATION":87.9233,"RA_OF_ASC_NODE":359.8642,"ARG_OF_PERICENTER":75.1317,"MEAN_ANOMALY":285.0035,"EPHEMERIS_TYPE":0,"CLASSIFICATION_TYPE":"U","NORAD_CAT_ID":49104,"ELEMENT_SET_NO":999,"REV_AT_EPOCH":22096,"BSTAR":-0.00011442735,"MEAN_MOTION_DOT":-3.2e-7,"MEAN_MOTION_DDOT":0},{"OBJECT_NAME":"ONEWEB-0319","OBJECT_ID":"2021-075AG","EPOCH":"2026-02-14T00:07:06.907584","MEAN_MOTION":13.17647822,"ECCENTRICITY":0.00020839,"INCLINATION":87.9105,"RA_OF_ASC_NODE":30.3375,"ARG_OF_PERICENTER":69.6263,"MEAN_ANOMALY":290.5092,"EPHEMERIS_TYPE":0,"CLASSIFICATION_TYPE":"U","NORAD_CAT_ID":49105,"ELEMENT_SET_NO":999,"REV_AT_EPOCH":21738,"BSTAR":-0.00024925989,"MEAN_MOTION_DOT":-8.4e-7,"MEAN_MOTION_DDOT":0},{"OBJECT_NAME":"ONEWEB-0323","OBJECT_ID":"2021-075AH","EPOCH":"2026-02-13T22:01:34.519296","MEAN_MOTION":13.12442439,"ECCENTRICITY":0.00023565,"INCLINATION":87.8971,"RA_OF_ASC_NODE":15.1111,"ARG_OF_PERICENTER":68.7544,"MEAN_ANOMALY":291.3836,"EPHEMERIS_TYPE":0,"CLASSIFICATION_TYPE":"U","NORAD_CAT_ID":49106,"ELEMENT_SET_NO":999,"REV_AT_EPOCH":21838,"BSTAR":0.00029256463,"MEAN_MOTION_DOT":1.18e-6,"MEAN_MOTION_DDOT":0},{"OBJECT_NAME":"ONEWEB-0329","OBJECT_ID":"2021-075AJ","EPOCH":"2026-02-13T22:29:54.241440","MEAN_MOTION":13.17647854,"ECCENTRICITY":0.00020562,"INCLINATION":87.9109,"RA_OF_ASC_NODE":30.3508,"ARG_OF_PERICENTER":84.8195,"MEAN_ANOMALY":275.3172,"EPHEMERIS_TYPE":0,"CLASSIFICATION_TYPE":"U","NORAD_CAT_ID":49107,"ELEMENT_SET_NO":999,"REV_AT_EPOCH":21735,"BSTAR":0.00026883669,"MEAN_MOTION_DOT":1.17e-6,"MEAN_MOTION_DDOT":0},{"OBJECT_NAME":"ONEWEB-0330","OBJECT_ID":"2021-075AK","EPOCH":"2026-02-14T00:20:28.162176","MEAN_MOTION":13.17647447,"ECCENTRICITY":0.00021587,"INCLINATION":87.9105,"RA_OF_ASC_NODE":30.3436,"ARG_OF_PERICENTER":92.4237,"MEAN_ANOMALY":267.7141,"EPHEMERIS_TYPE":0,"CLASSIFICATION_TYPE":"U","NORAD_CAT_ID":49108,"ELEMENT_SET_NO":999,"REV_AT_EPOCH":21740,"BSTAR":8.754468e-5,"MEAN_MOTION_DOT":4.7e-7,"MEAN_MOTION_DDOT":0},{"OBJECT_NAME":"ONEWEB-0292","OBJECT_ID":"2021-083A","EPOCH":"2026-02-14T05:09:28.014912","MEAN_MOTION":13.1347091,"ECCENTRICITY":0.00019298,"INCLINATION":87.903,"RA_OF_ASC_NODE":344.6981,"ARG_OF_PERICENTER":72.3602,"MEAN_ANOMALY":287.7737,"EPHEMERIS_TYPE":0,"CLASSIFICATION_TYPE":"U","NORAD_CAT_ID":49186,"ELEMENT_SET_NO":999,"REV_AT_EPOCH":21478,"BSTAR":0.00048793301,"MEAN_MOTION_DOT":1.91e-6,"MEAN_MOTION_DDOT":0},{"OBJECT_NAME":"ONEWEB-0303","OBJECT_ID":"2021-083B","EPOCH":"2026-02-14T05:34:34.680576","MEAN_MOTION":13.1868359,"ECCENTRICITY":0.00019634,"INCLINATION":87.9234,"RA_OF_ASC_NODE":359.8673,"ARG_OF_PERICENTER":77.6818,"MEAN_ANOMALY":282.4534,"EPHEMERIS_TYPE":0,"CLASSIFICATION_TYPE":"U","NORAD_CAT_ID":49187,"ELEMENT_SET_NO":999,"REV_AT_EPOCH":21377,"BSTAR":-0.00027625752,"MEAN_MOTION_DOT":-9.6e-7,"MEAN_MOTION_DDOT":0},{"OBJECT_NAME":"ONEWEB-0306","OBJECT_ID":"2021-083C","EPOCH":"2026-02-13T22:03:16.391808","MEAN_MOTION":13.1868398,"ECCENTRICITY":0.00018131,"INCLINATION":87.923,"RA_OF_ASC_NODE":359.9132,"ARG_OF_PERICENTER":89.4908,"MEAN_ANOMALY":270.6431,"EPHEMERIS_TYPE":0,"CLASSIFICATION_TYPE":"U","NORAD_CAT_ID":49188,"ELEMENT_SET_NO":999,"REV_AT_EPOCH":21377,"BSTAR":-2.1452009e-5,"MEAN_MOTION_DOT":4.0e-8,"MEAN_MOTION_DDOT":0},{"OBJECT_NAME":"ONEWEB-0307","OBJECT_ID":"2021-083D","EPOCH":"2026-02-14T06:50:38.798592","MEAN_MOTION":13.13471094,"ECCENTRICITY":0.00018153,"INCLINATION":87.9026,"RA_OF_ASC_NODE":344.6737,"ARG_OF_PERICENTER":79.1402,"MEAN_ANOMALY":280.9932,"EPHEMERIS_TYPE":0,"CLASSIFICATION_TYPE":"U","NORAD_CAT_ID":49189,"ELEMENT_SET_NO":999,"REV_AT_EPOCH":21479,"BSTAR":0.00094707765,"MEAN_MOTION_DOT":3.59e-6,"MEAN_MOTION_DDOT":0},{"OBJECT_NAME":"ONEWEB-0320","OBJECT_ID":"2021-083E","EPOCH":"2026-02-14T05:31:00.747264","MEAN_MOTION":13.1868769,"ECCENTRICITY":0.00019176,"INCLINATION":87.9224,"RA_OF_ASC_NODE":359.8768,"ARG_OF_PERICENTER":82.2274,"MEAN_ANOMALY":277.9076,"EPHEMERIS_TYPE":0,"CLASSIFICATION_TYPE":"U","NORAD_CAT_ID":49190,"ELEMENT_SET_NO":999,"REV_AT_EPOCH":21377,"BSTAR":0.00015094298,"MEAN_MOTION_DOT":7.2e-7,"MEAN_MOTION_DDOT":0},{"OBJECT_NAME":"ONEWEB-0321","OBJECT_ID":"2021-083F","EPOCH":"2026-02-14T04:07:31.794528","MEAN_MOTION":13.20770875,"ECCENTRICITY":0.00015563,"INCLINATION":87.9212,"RA_OF_ASC_NODE":298.9896,"ARG_OF_PERICENTER":91.1044,"MEAN_ANOMALY":269.0267,"EPHEMERIS_TYPE":0,"CLASSIFICATION_TYPE":"U","NORAD_CAT_ID":49191,"ELEMENT_SET_NO":999,"REV_AT_EPOCH":22059,"BSTAR":0.0001326716,"MEAN_MOTION_DOT":6.7e-7,"MEAN_MOTION_DDOT":0},{"OBJECT_NAME":"ONEWEB-0322","OBJECT_ID":"2021-083G","EPOCH":"2026-02-14T06:44:31.932960","MEAN_MOTION":13.13472345,"ECCENTRICITY":0.0001404,"INCLINATION":87.9028,"RA_OF_ASC_NODE":344.6791,"ARG_OF_PERICENTER":92.1419,"MEAN_ANOMALY":267.9871,"EPHEMERIS_TYPE":0,"CLASSIFICATION_TYPE":"U","NORAD_CAT_ID":49192,"ELEMENT_SET_NO":999,"REV_AT_EPOCH":21478,"BSTAR":0.001184142,"MEAN_MOTION_DOT":4.45e-6,"MEAN_MOTION_DDOT":0},{"OBJECT_NAME":"ONEWEB-0324","OBJECT_ID":"2021-083H","EPOCH":"2026-02-13T21:53:46.652928","MEAN_MOTION":13.18684579,"ECCENTRICITY":0.00019997,"INCLINATION":87.9236,"RA_OF_ASC_NODE":359.92,"ARG_OF_PERICENTER":83.5013,"MEAN_ANOMALY":276.6346,"EPHEMERIS_TYPE":0,"CLASSIFICATION_TYPE":"U","NORAD_CAT_ID":49193,"ELEMENT_SET_NO":999,"REV_AT_EPOCH":21375,"BSTAR":-0.00039691686,"MEAN_MOTION_DOT":-1.44e-6,"MEAN_MOTION_DDOT":0},{"OBJECT_NAME":"ONEWEB-0325","OBJECT_ID":"2021-083J","EPOCH":"2026-02-13T21:58:31.511136","MEAN_MOTION":13.18683772,"ECCENTRICITY":0.00018445,"INCLINATION":87.9222,"RA_OF_ASC_NODE":359.9387,"ARG_OF_PERICENTER":80.3137,"MEAN_ANOMALY":279.8203,"EPHEMERIS_TYPE":0,"CLASSIFICATION_TYPE":"U","NORAD_CAT_ID":49194,"ELEMENT_SET_NO":999,"REV_AT_EPOCH":21376,"BSTAR":1.8527326e-5,"MEAN_MOTION_DOT":2.0e-7,"MEAN_MOTION_DDOT":0},{"OBJECT_NAME":"ONEWEB-0326","OBJECT_ID":"2021-083K","EPOCH":"2026-02-14T05:37:09.753024","MEAN_MOTION":13.18684547,"ECCENTRICITY":0.00019479,"INCLINATION":87.9232,"RA_OF_ASC_NODE":359.8633,"ARG_OF_PERICENTER":73.1307,"MEAN_ANOMALY":287.0039,"EPHEMERIS_TYPE":0,"CLASSIFICATION_TYPE":"U","NORAD_CAT_ID":49195,"ELEMENT_SET_NO":999,"REV_AT_EPOCH":21379,"BSTAR":1.7871782e-5,"MEAN_MOTION_DOT":2.0e-7,"MEAN_MOTION_DDOT":0},{"OBJECT_NAME":"ONEWEB-0327","OBJECT_ID":"2021-083L","EPOCH":"2026-02-14T05:36:45.941184","MEAN_MOTION":13.1868404,"ECCENTRICITY":0.00018399,"INCLINATION":87.9222,"RA_OF_ASC_NODE":359.8782,"ARG_OF_PERICENTER":73.3673,"MEAN_ANOMALY":286.7661,"EPHEMERIS_TYPE":0,"CLASSIFICATION_TYPE":"U","NORAD_CAT_ID":49196,"ELEMENT_SET_NO":999,"REV_AT_EPOCH":21381,"BSTAR":-0.00026713778,"MEAN_MOTION_DOT":-9.2e-7,"MEAN_MOTION_DDOT":0},{"OBJECT_NAME":"ONEWEB-0328","OBJECT_ID":"2021-083M","EPOCH":"2026-02-14T06:29:54.692160","MEAN_MOTION":13.13472336,"ECCENTRICITY":0.00019524,"INCLINATION":87.9046,"RA_OF_ASC_NODE":344.6371,"ARG_OF_PERICENTER":80.8268,"MEAN_ANOMALY":279.3082,"EPHEMERIS_TYPE":0,"CLASSIFICATION_TYPE":"U","NORAD_CAT_ID":49197,"ELEMENT_SET_NO":999,"REV_AT_EPOCH":21476,"BSTAR":0.0011084486,"MEAN_MOTION_DOT":4.18e-6,"MEAN_MOTION_DDOT":0}]
